[{"OBJECT_NAME":"ONEWEB-0205","OBJECT_ID":"2021-031S","EPOCH":"2026-03-09T17:28:13.247904","MEAN_MOTION":13.14503131,"ECCENTRICITY":0.00017636,"INCLINATION":87.8985,"RA_OF_ASC_NODE":309.5397,"ARG_OF_PERICENTER":76.1993,"MEAN_ANOMALY":283.9333,"EPHEMERIS_TYPE":0,"CLASSIFICATION_TYPE":"U","NORAD_CAT_ID":48226,"ELEMENT_SET_NO":999,"REV_AT_EPOCH":23520,"BSTAR":0.00058451129,"MEAN_MOTION_DOT":2.29e-6,"MEAN_MOTION_DDOT":0},{"OBJECT_NAME":"COSMOS 272","OBJECT_ID":"1969-024A","EPOCH":"2026-03-09T09:10:59.785824","MEAN_MOTION":13.17947174,"ECCENTRICITY":0.00200905,"INCLINATION":73.9906,"RA_OF_ASC_NODE":46.7794,"ARG_OF_PERICENTER":261.2276,"MEAN_ANOMALY":209.2019,"EPHEMERIS_TYPE":0,"CLASSIFICATION_TYPE":"U","NORAD_CAT_ID":3818,"ELEMENT_SET_NO":999,"REV_AT_EPOCH":74070,"BSTAR":-0.00037353481,"MEAN_MOTION_DOT":-1.65e-6,"MEAN_MOTION_DDOT":0}]
